0 TELSTAR 2 (A-41)
1 00573U 63013A   13286.72042203 -.00000005  00000-0 -11215-3 0  4836
2 00573 042.7515 189.4285 4018799 275.2060 049.5298 06.39250723290294
0 TELSTAR 2 (A-41)
1 00573U 63013A   13292.66133494 -.00000044  00000-0 -77202-3 0  4841
2 00573 042.7508 183.1543 4018580 282.4356 041.3707 06.39249649290672
